CCSDS_OMM_VERS = 2.0
CREATION_DATE  = 
ORIGINATOR     = 

OBJECT_NAME    = SL-3 R/B
OBJECT_ID      = 1982-079B
CENTER_NAME    = EARTH
REF_FRAME      = TEME
TIME_SYSTEM    = UTC
MEAN_ELEMENT_THEORY = SGP/SGP4

EPOCH          = 2025-11-21T12:44:41.984736
MEAN_MOTION    = 15.23259668
ECCENTRICITY   = .0025924
INCLINATION    = 81.1457
RA_OF_ASC_NODE = 320.6570
ARG_OF_PERICENTER = 168.1210
MEAN_ANOMALY   = 192.0640

EPHEMERIS_TYPE = 0
CLASSIFICATION_TYPE = U
NORAD_CAT_ID   = 13403
ELEMENT_SET_NO = 999
REV_AT_EPOCH   = 36122
BSTAR          = .26119E-3
MEAN_MOTION_DOT = .6272E-4
MEAN_MOTION_DDOT = 0

CCSDS_OMM_VERS = 2.0
CREATION_DATE  = 
ORIGINATOR     = 

OBJECT_NAME    = SL-14 R/B
OBJECT_ID      = 1982-092B
CENTER_NAME    = EARTH
REF_FRAME      = TEME
TIME_SYSTEM    = UTC
MEAN_ELEMENT_THEORY = SGP/SGP4

EPOCH          = 2025-11-21T06:51:22.447008
MEAN_MOTION    = 14.86522683
ECCENTRICITY   = .0019085
INCLINATION    = 82.5687
RA_OF_ASC_NODE = 242.7736
ARG_OF_PERICENTER = 303.7964
MEAN_ANOMALY   = 172.8603

EPHEMERIS_TYPE = 0
CLASSIFICATION_TYPE = U
NORAD_CAT_ID   = 13553
ELEMENT_SET_NO = 999
REV_AT_EPOCH   = 31282
BSTAR          = .76579E-4
MEAN_MOTION_DOT = .704E-5
MEAN_MOTION_DDOT = 0

CCSDS_OMM_VERS = 2.0
CREATION_DATE  = 
ORIGINATOR     = 

OBJECT_NAME    = SL-3 R/B
OBJECT_ID      = 1983-010B
CENTER_NAME    = EARTH
REF_FRAME      = TEME
TIME_SYSTEM    = UTC
MEAN_ELEMENT_THEORY = SGP/SGP4

EPOCH          = 2025-11-21T13:36:30.737952
MEAN_MOTION    = 15.42693993
ECCENTRICITY   = .001813
INCLINATION    = 81.1021
RA_OF_ASC_NODE = 134.4472
ARG_OF_PERICENTER = 63.7865
MEAN_ANOMALY   = 296.5239

EPHEMERIS_TYPE = 0
CLASSIFICATION_TYPE = U
NORAD_CAT_ID   = 13819
ELEMENT_SET_NO = 999
REV_AT_EPOCH   = 34125
BSTAR          = .34204E-3
MEAN_MOTION_DOT = .15046E-3
MEAN_MOTION_DDOT = 0

CCSDS_OMM_VERS = 2.0
CREATION_DATE  = 
ORIGINATOR     = 

OBJECT_NAME    = SL-3 R/B
OBJECT_ID      = 1983-075B
CENTER_NAME    = EARTH
REF_FRAME      = TEME
TIME_SYSTEM    = UTC
MEAN_ELEMENT_THEORY = SGP/SGP4

EPOCH          = 2025-11-21T13:07:56.036640
MEAN_MOTION    = 15.35547190
ECCENTRICITY   = .0020925
INCLINATION    = 97.6097
RA_OF_ASC_NODE = 321.3293
ARG_OF_PERICENTER = 255.1071
MEAN_ANOMALY   = 104.7854

EPHEMERIS_TYPE = 0
CLASSIFICATION_TYPE = U
NORAD_CAT_ID   = 14208
ELEMENT_SET_NO = 999
REV_AT_EPOCH   = 31354
BSTAR          = .34988E-3
MEAN_MOTION_DOT = .12093E-3
MEAN_MOTION_DDOT = 0

CCSDS_OMM_VERS = 2.0
CREATION_DATE  = 
ORIGINATOR     = 

OBJECT_NAME    = COSMOS 1536
OBJECT_ID      = 1984-013A
CENTER_NAME    = EARTH
REF_FRAME      = TEME
TIME_SYSTEM    = UTC
MEAN_ELEMENT_THEORY = SGP/SGP4

EPOCH          = 2025-11-21T04:20:48.742080
MEAN_MOTION    = 15.22188773
ECCENTRICITY   = .0013654
INCLINATION    = 82.5473
RA_OF_ASC_NODE = 215.5359
ARG_OF_PERICENTER = 310.3570
MEAN_ANOMALY   = 49.6473

EPHEMERIS_TYPE = 0
CLASSIFICATION_TYPE = U
NORAD_CAT_ID   = 14699
ELEMENT_SET_NO = 999
REV_AT_EPOCH   = 25610
BSTAR          = .35797E-3
MEAN_MOTION_DOT = .8269E-4
MEAN_MOTION_DDOT = 0

CCSDS_OMM_VERS = 2.0
CREATION_DATE  = 
ORIGINATOR     = 

OBJECT_NAME    = SL-14 R/B
OBJECT_ID      = 1984-027B
CENTER_NAME    = EARTH
REF_FRAME      = TEME
TIME_SYSTEM    = UTC
MEAN_ELEMENT_THEORY = SGP/SGP4

EPOCH          = 2025-11-21T11:27:10.824768
MEAN_MOTION    = 14.85842043
ECCENTRICITY   = .0017285
INCLINATION    = 82.5416
RA_OF_ASC_NODE = 346.4978
ARG_OF_PERICENTER = 336.6891
MEAN_ANOMALY   = 23.3539

EPHEMERIS_TYPE = 0
CLASSIFICATION_TYPE = U
NORAD_CAT_ID   = 14820
ELEMENT_SET_NO = 999
REV_AT_EPOCH   = 23156
BSTAR          = .59435E-4
MEAN_MOTION_DOT = .543E-5
MEAN_MOTION_DDOT = 0

CCSDS_OMM_VERS = 2.0
CREATION_DATE  = 
ORIGINATOR     = 

OBJECT_NAME    = SL-8 R/B
OBJECT_ID      = 1985-006B
CENTER_NAME    = EARTH
REF_FRAME      = TEME
TIME_SYSTEM    = UTC
MEAN_ELEMENT_THEORY = SGP/SGP4

EPOCH          = 2025-11-21T12:44:24.028224
MEAN_MOTION    = 14.37701879
ECCENTRICITY   = .00178
INCLINATION    = 74.0446
RA_OF_ASC_NODE = 100.1537
ARG_OF_PERICENTER = 38.6853
MEAN_ANOMALY   = 34.3663

EPHEMERIS_TYPE = 0
CLASSIFICATION_TYPE = U
NORAD_CAT_ID   = 15483
ELEMENT_SET_NO = 999
REV_AT_EPOCH   = 13848
BSTAR          = .10115E-3
MEAN_MOTION_DOT = .278E-5
MEAN_MOTION_DDOT = 0

CCSDS_OMM_VERS = 2.0
CREATION_DATE  = 
ORIGINATOR     = 

OBJECT_NAME    = SL-12 R/B(2)
OBJECT_ID      = 1985-042D
CENTER_NAME    = EARTH
REF_FRAME      = TEME
TIME_SYSTEM    = UTC
MEAN_ELEMENT_THEORY = SGP/SGP4

EPOCH          = 2025-11-21T10:46:31.444320
MEAN_MOTION    = 14.21942227
ECCENTRICITY   = .0037513
INCLINATION    = 71.1077
RA_OF_ASC_NODE = 316.3999
ARG_OF_PERICENTER = 292.6346
MEAN_ANOMALY   = 222.3725

EPHEMERIS_TYPE = 0
CLASSIFICATION_TYPE = U
NORAD_CAT_ID   = 15772
ELEMENT_SET_NO = 999
REV_AT_EPOCH   = 9900
BSTAR          = .58015E-4
MEAN_MOTION_DOT = .81E-6
MEAN_MOTION_DDOT = 0

CCSDS_OMM_VERS = 2.0
CREATION_DATE  = 
ORIGINATOR     = 

OBJECT_NAME    = SL-14 R/B
OBJECT_ID      = 1985-069B
CENTER_NAME    = EARTH
REF_FRAME      = TEME
TIME_SYSTEM    = UTC
MEAN_ELEMENT_THEORY = SGP/SGP4

EPOCH          = 2025-11-21T13:29:27.962880
MEAN_MOTION    = 14.86287111
ECCENTRICITY   = .0018616
INCLINATION    = 82.5248
RA_OF_ASC_NODE = 126.6127
ARG_OF_PERICENTER = 186.2166
MEAN_ANOMALY   = 173.8823

EPHEMERIS_TYPE = 0
CLASSIFICATION_TYPE = U
NORAD_CAT_ID   = 15945
ELEMENT_SET_NO = 999
REV_AT_EPOCH   = 15677
BSTAR          = .71248E-4
MEAN_MOTION_DOT = .653E-5
MEAN_MOTION_DDOT = 0

CCSDS_OMM_VERS = 2.0
CREATION_DATE  = 
ORIGINATOR     = 

OBJECT_NAME    = SL-16 R/B
OBJECT_ID      = 1985-097B
CENTER_NAME    = EARTH
REF_FRAME      = TEME
TIME_SYSTEM    = UTC
MEAN_ELEMENT_THEORY = SGP/SGP4

EPOCH          = 2025-11-21T13:06:30.110976
MEAN_MOTION    = 14.16580377
ECCENTRICITY   = .0005584
INCLINATION    = 71.0042
RA_OF_ASC_NODE = 8.2226
ARG_OF_PERICENTER = 49.3453
MEAN_ANOMALY   = 120.6335

EPHEMERIS_TYPE = 0
CLASSIFICATION_TYPE = U
NORAD_CAT_ID   = 16182
ELEMENT_SET_NO = 999
REV_AT_EPOCH   = 7191
BSTAR          = .16524E-3
MEAN_MOTION_DOT = .282E-5
MEAN_MOTION_DDOT = 0

CCSDS_OMM_VERS = 2.0
CREATION_DATE  = 
ORIGINATOR     = 

OBJECT_NAME    = SL-14 R/B
OBJECT_ID      = 1986-006B
CENTER_NAME    = EARTH
REF_FRAME      = TEME
TIME_SYSTEM    = UTC
MEAN_ELEMENT_THEORY = SGP/SGP4

EPOCH          = 2025-11-21T13:34:12.981792
MEAN_MOTION    = 14.86629659
ECCENTRICITY   = .0075198
INCLINATION    = 82.5279
RA_OF_ASC_NODE = 1.4753
ARG_OF_PERICENTER = 271.1507
MEAN_ANOMALY   = 88.1095

EPHEMERIS_TYPE = 0
CLASSIFICATION_TYPE = U
NORAD_CAT_ID   = 16496
ELEMENT_SET_NO = 999
REV_AT_EPOCH   = 13314
BSTAR          = .79124E-4
MEAN_MOTION_DOT = .764E-5
MEAN_MOTION_DDOT = 0

CCSDS_OMM_VERS = 2.0
CREATION_DATE  = 
ORIGINATOR     = 

OBJECT_NAME    = COSMOS 1743
OBJECT_ID      = 1986-034A
CENTER_NAME    = EARTH
REF_FRAME      = TEME
TIME_SYSTEM    = UTC
MEAN_ELEMENT_THEORY = SGP/SGP4

EPOCH          = 2025-11-21T02:39:51.081696
MEAN_MOTION    = 15.50720551
ECCENTRICITY   = .0006021
INCLINATION    = 82.5359
RA_OF_ASC_NODE = 187.0293
ARG_OF_PERICENTER = 347.7726
MEAN_ANOMALY   = 12.3378

EPHEMERIS_TYPE = 0
CLASSIFICATION_TYPE = U
NORAD_CAT_ID   = 16719
ELEMENT_SET_NO = 999
REV_AT_EPOCH   = 16338
BSTAR          = .43794E-3
MEAN_MOTION_DOT = .25261E-3
MEAN_MOTION_DDOT = 0

