SL-3 R/B                
1 13403U 82079B   25325.53104149  .00006272  00000+0  26119-3 0  9999
2 13403  81.1457 320.6570 0025924 168.1210 192.0640 15.23259668361226
SL-14 R/B               
1 13553U 82092B   25325.28567647  .00000704  00000+0  76579-4 0  9998
2 13553  82.5687 242.7736 0019085 303.7964 172.8603 14.86522683312829
SL-3 R/B                
1 13819U 83010B   25325.56702243  .00015046  00000+0  34204-3 0  9991
2 13819  81.1021 134.4472 0018130  63.7865 296.5239 15.42693993341252
SL-3 R/B                
1 14208U 83075B   25325.54717635  .00012093  00000+0  34988-3 0  9992
2 14208  97.6097 321.3293 0020925 255.1071 104.7854 15.35547190313542
COSMOS 1536             
1 14699U 84013A   25325.18111970  .00008269  00000+0  35797-3 0  9998
2 14699  82.5473 215.5359 0013654 310.3570  49.6473 15.22188773256109
SL-14 R/B               
1 14820U 84027B   25325.47720862  .00000543  00000+0  59435-4 0  9990
2 14820  82.5416 346.4978 0017285 336.6891  23.3539 14.85842043231564
SL-8 R/B                
1 15483U 85006B   25325.53083366  .00000278  00000+0  10115-3 0  9998
2 15483  74.0446 100.1537 0017800  38.6853  34.3663 14.37701879138480
SL-12 R/B(2)            
1 15772U 85042D   25325.44897505  .00000081  00000+0  58015-4 0  9991
2 15772  71.1077 316.3999 0037513 292.6346 222.3725 14.21942227 99003
SL-14 R/B               
1 15945U 85069B   25325.56212920  .00000653  00000+0  71248-4 0  9995
2 15945  82.5248 126.6127 0018616 186.2166 173.8823 14.86287111156779
SL-16 R/B               
1 16182U 85097B   25325.54618184  .00000282  00000+0  16524-3 0  9993
2 16182  71.0042   8.2226 0005584  49.3453 120.6335 14.16580377 71914
SL-14 R/B               
1 16496U 86006B   25325.56542803  .00000764  00000+0  79124-4 0  9999
2 16496  82.5279   1.4753 0075198 271.1507  88.1095 14.86629659133143
COSMOS 1743             
1 16719U 86034A   25325.11100789  .00025261  00000+0  43794-3 0  9994
2 16719  82.5359 187.0293 0006021 347.7726  12.3378 15.50720551163389
